FENGYUN 1C DEB          
1 38799U 99025EUP 26086.97987546  .00003354  00000+0  74460-3 0  9996
2 38799  98.3915 167.0509 0161572  29.7400 331.2859 14.49944693655634
FENGYUN 1C DEB          
1 38801U 99025EUR 26082.39911487  .00003085  00000+0  70572-3 0  9994
2 38801  98.3579 133.5875 0346192  55.9690 323.2483 14.25433452657943
FENGYUN 1C DEB          
1 38803U 99025EUT 26086.48568747  .00003859  00000+0  16398-2 0  9991
2 38803  99.1369  99.4580 0064791  96.7445 264.1112 14.24749586617032
FENGYUN 1C DEB          
1 38809U 99025EUZ 26087.28659414  .00001788  00000+0  69306-3 0  9995
2 38809  98.5875  99.1741 0223060  23.6027 337.5196 14.18467735707022
FENGYUN 1C DEB          
1 38813U 99025EVD 26087.75159941  .00000955  00000+0  46832-3 0  9996
2 38813  99.3501  95.8796 0006220 167.7538 192.3789 14.20429070497551
FENGYUN 1C DEB          
1 38818U 99025EVJ 26084.92114058  .00001237  00000+0  38999-3 0  9996
2 38818  98.2808 142.9088 0088142 148.1971  29.4945 14.39802132687323
FENGYUN 1C DEB          
1 38819U 99025EVK 26082.21099851  .00000844  00000+0  40776-3 0  9999
2 38819  98.6272  77.3750 0078565 265.1354 156.0025 14.19604350649035
FENGYUN 1C DEB          
1 38824U 99025EVQ 26086.83178497  .00005240  00000+0  25937-2 0  9997
2 38824  99.2939 229.7466 0094077 265.3166  93.7257 14.15456075706239
FENGYUN 1C DEB          
1 38827U 99025EVT 26087.32410993  .00003177  00000+0  90016-3 0  9993
2 38827  98.3769 111.9809 0214956 359.1547   0.9245 14.33547631625721
FENGYUN 1C DEB          
1 38829U 99025EVV 26086.49515215  .00000832  00000+0  49648-3 0  9995
2 38829  98.7439 104.4487 0042164  93.6726 266.9267 14.09455940656084
FENGYUN 1C DEB          
1 38832U 99025EVY 26078.41975784  .00001891  00000+0  11650-2 0  9990
2 38832  99.2568 129.7562 0087154 135.0795 225.7467 14.04905800651154
FENGYUN 1C DEB          
1 39537U 99025EWE 26085.64492966  .00001910  00000+0  15390-2 0  9999
2 39537  99.1592 233.8652 0174576  64.0491 297.8536 13.84774461606947
FENGYUN 1C DEB          
1 39540U 99025EWH 26065.60758395  .00001895  00000+0  24056-2 0  9999
2 39540 106.1831 347.6154 0398512 157.9132 327.7913 13.37245619702191
FENGYUN 1C DEB          
1 39541U 99025EWJ 26078.34411908  .00001026  00000+0  48343-3 0  9993
2 39541  98.6655 123.6305 0072376 153.0465 207.4501 14.20671366603747
FENGYUN 1C DEB          
1 39543U 99025EWL 26086.81016406  .00000832  00000+0  66106-3 0  9991
2 39543  99.0299 115.5329 0337406 225.4271 131.8880 13.70451303506249
FENGYUN 1C DEB          
1 39544U 99025EWM 26083.95163961  .00000896  00000+0  56726-3 0  9990
2 39544  98.7308 324.4474 0055137  81.0466 279.6938 14.05695447582910
