[{"OBJECT_NAME":"FENGYUN 1C DEB","OBJECT_ID":"1999-025EUP","EPOCH":"2026-03-27T23:31:01.239744","MEAN_MOTION":14.49944693,"ECCENTRICITY":0.01615722,"INCLINATION":98.3915,"RA_OF_ASC_NODE":167.0509,"ARG_OF_PERICENTER":29.74,"MEAN_ANOMALY":331.2859,"EPHEMERIS_TYPE":0,"CLASSIFICATION_TYPE":"U","NORAD_CAT_ID":38799,"ELEMENT_SET_NO":999,"REV_AT_EPOCH":65563,"BSTAR":0.00074459946,"MEAN_MOTION_DOT":3.354e-5,"MEAN_MOTION_DDOT":0},{"OBJECT_NAME":"FENGYUN 1C DEB","OBJECT_ID":"1999-025EUR","EPOCH":"2026-03-23T09:34:43.524768","MEAN_MOTION":14.25433452,"ECCENTRICITY":0.03461926,"INCLINATION":98.3579,"RA_OF_ASC_NODE":133.5875,"ARG_OF_PERICENTER":55.969,"MEAN_ANOMALY":323.2483,"EPHEMERIS_TYPE":0,"CLASSIFICATION_TYPE":"U","NORAD_CAT_ID":38801,"ELEMENT_SET_NO":999,"REV_AT_EPOCH":65794,"BSTAR":0.00070572203,"MEAN_MOTION_DOT":3.085e-5,"MEAN_MOTION_DDOT":0},{"OBJECT_NAME":"FENGYUN 1C DEB","OBJECT_ID":"1999-025EUT","EPOCH":"2026-03-27T11:39:23.397408","MEAN_MOTION":14.24749586,"ECCENTRICITY":0.0064791,"INCLINATION":99.1369,"RA_OF_ASC_NODE":99.458,"ARG_OF_PERICENTER":96.7445,"MEAN_ANOMALY":264.1112,"EPHEMERIS_TYPE":0,"CLASSIFICATION_TYPE":"U","NORAD_CAT_ID":38803,"ELEMENT_SET_NO":999,"REV_AT_EPOCH":61703,"BSTAR":0.0016398,"MEAN_MOTION_DOT":3.859e-5,"MEAN_MOTION_DDOT":0},{"OBJECT_NAME":"FENGYUN 1C DEB","OBJECT_ID":"1999-025EUZ","EPOCH":"2026-03-28T06:52:41.733696","MEAN_MOTION":14.18467735,"ECCENTRICITY":0.022306,"INCLINATION":98.5875,"RA_OF_ASC_NODE":99.1741,"ARG_OF_PERICENTER":23.6027,"MEAN_ANOMALY":337.5196,"EPHEMERIS_TYPE":0,"CLASSIFICATION_TYPE":"U","NORAD_CAT_ID":38809,"ELEMENT_SET_NO":999,"REV_AT_EPOCH":70702,"BSTAR":0.00069306,"MEAN_MOTION_DOT":1.788e-5,"MEAN_MOTION_DDOT":0},{"OBJECT_NAME":"FENGYUN 1C DEB","OBJECT_ID":"1999-025EVD","EPOCH":"2026-03-28T18:02:18.189024","MEAN_MOTION":14.2042907,"ECCENTRICITY":0.00062204,"INCLINATION":99.3501,"RA_OF_ASC_NODE":95.8796,"ARG_OF_PERICENTER":167.7538,"MEAN_ANOMALY":192.3789,"EPHEMERIS_TYPE":0,"CLASSIFICATION_TYPE":"U","NORAD_CAT_ID":38813,"ELEMENT_SET_NO":999,"REV_AT_EPOCH":49755,"BSTAR":0.00046832028,"MEAN_MOTION_DOT":9.55e-6,"MEAN_MOTION_DDOT":0},{"OBJECT_NAME":"FENGYUN 1C DEB","OBJECT_ID":"1999-025EVJ","EPOCH":"2026-03-25T22:06:26.546112","MEAN_MOTION":14.39802132,"ECCENTRICITY":0.0088142,"INCLINATION":98.2808,"RA_OF_ASC_NODE":142.9088,"ARG_OF_PERICENTER":148.1971,"MEAN_ANOMALY":29.4945,"EPHEMERIS_TYPE":0,"CLASSIFICATION_TYPE":"U","NORAD_CAT_ID":38818,"ELEMENT_SET_NO":999,"REV_AT_EPOCH":68732,"BSTAR":0.00038999,"MEAN_MOTION_DOT":1.237e-5,"MEAN_MOTION_DDOT":0},{"OBJECT_NAME":"FENGYUN 1C DEB","OBJECT_ID":"1999-025EVK","EPOCH":"2026-03-23T05:03:50.271264","MEAN_MOTION":14.1960435,"ECCENTRICITY":0.00785654,"INCLINATION":98.6272,"RA_OF_ASC_NODE":77.375,"ARG_OF_PERICENTER":265.1354,"MEAN_ANOMALY":156.0025,"EPHEMERIS_TYPE":0,"CLASSIFICATION_TYPE":"U","NORAD_CAT_ID":38819,"ELEMENT_SET_NO":999,"REV_AT_EPOCH":64903,"BSTAR":0.00040776263,"MEAN_MOTION_DOT":8.44e-6,"MEAN_MOTION_DDOT":0},{"OBJECT_NAME":"FENGYUN 1C DEB","OBJECT_ID":"1999-025EVQ","EPOCH":"2026-03-27T19:57:46.221408","MEAN_MOTION":14.15456075,"ECCENTRICITY":0.00940772,"INCLINATION":99.2939,"RA_OF_ASC_NODE":229.7466,"ARG_OF_PERICENTER":265.3166,"MEAN_ANOMALY":93.7257,"EPHEMERIS_TYPE":0,"CLASSIFICATION_TYPE":"U","NORAD_CAT_ID":38824,"ELEMENT_SET_NO":999,"REV_AT_EPOCH":70623,"BSTAR":0.0025937465,"MEAN_MOTION_DOT":5.24e-5,"MEAN_MOTION_DDOT":0},{"OBJECT_NAME":"FENGYUN 1C DEB","OBJECT_ID":"1999-025EVT","EPOCH":"2026-03-28T07:46:43.097952","MEAN_MOTION":14.33547631,"ECCENTRICITY":0.0214956,"INCLINATION":98.3769,"RA_OF_ASC_NODE":111.9809,"ARG_OF_PERICENTER":359.1547,"MEAN_ANOMALY":0.9245,"EPHEMERIS_TYPE":0,"CLASSIFICATION_TYPE":"U","NORAD_CAT_ID":38827,"ELEMENT_SET_NO":999,"REV_AT_EPOCH":62572,"BSTAR":0.00090016,"MEAN_MOTION_DOT":3.177e-5,"MEAN_MOTION_DDOT":0},{"OBJECT_NAME":"FENGYUN 1C DEB","OBJECT_ID":"1999-025EVV","EPOCH":"2026-03-27T11:53:01.145760","MEAN_MOTION":14.0945594,"ECCENTRICITY":0.0042164,"INCLINATION":98.7439,"RA_OF_ASC_NODE":104.4487,"ARG_OF_PERICENTER":93.6726,"MEAN_ANOMALY":266.9267,"EPHEMERIS_TYPE":0,"CLASSIFICATION_TYPE":"U","NORAD_CAT_ID":38829,"ELEMENT_SET_NO":999,"REV_AT_EPOCH":65608,"BSTAR":0.00049648,"MEAN_MOTION_DOT":8.32e-6,"MEAN_MOTION_DDOT":0},{"OBJECT_NAME":"FENGYUN 1C DEB","OBJECT_ID":"1999-025EVY","EPOCH":"2026-03-19T10:04:27.077376","MEAN_MOTION":14.049058,"ECCENTRICITY":0.00871541,"INCLINATION":99.2568,"RA_OF_ASC_NODE":129.7562,"ARG_OF_PERICENTER":135.0795,"MEAN_ANOMALY":225.7467,"EPHEMERIS_TYPE":0,"CLASSIFICATION_TYPE":"U","NORAD_CAT_ID":38832,"ELEMENT_SET_NO":999,"REV_AT_EPOCH":65115,"BSTAR":0.001164991,"MEAN_MOTION_DOT":1.891e-5,"MEAN_MOTION_DDOT":0},{"OBJECT_NAME":"FENGYUN 1C DEB","OBJECT_ID":"1999-025EWE","EPOCH":"2026-03-26T15:28:41.922624","MEAN_MOTION":13.84774461,"ECCENTRICITY":0.01745765,"INCLINATION":99.1592,"RA_OF_ASC_NODE":233.8652,"ARG_OF_PERICENTER":64.0491,"MEAN_ANOMALY":297.8536,"EPHEMERIS_TYPE":0,"CLASSIFICATION_TYPE":"U","NORAD_CAT_ID":39537,"ELEMENT_SET_NO":999,"REV_AT_EPOCH":60694,"BSTAR":0.0015389703,"MEAN_MOTION_DOT":1.91e-5,"MEAN_MOTION_DDOT":0},{"OBJECT_NAME":"FENGYUN 1C DEB","OBJECT_ID":"1999-025EWH","EPOCH":"2026-03-06T14:34:55.253280","MEAN_MOTION":13.37245619,"ECCENTRICITY":0.03985124,"INCLINATION":106.1831,"RA_OF_ASC_NODE":347.6154,"ARG_OF_PERICENTER":157.9132,"MEAN_ANOMALY":327.7913,"EPHEMERIS_TYPE":0,"CLASSIFICATION_TYPE":"U","NORAD_CAT_ID":39540,"ELEMENT_SET_NO":999,"REV_AT_EPOCH":70219,"BSTAR":0.0024056459,"MEAN_MOTION_DOT":1.895e-5,"MEAN_MOTION_DDOT":0},{"OBJECT_NAME":"FENGYUN 1C DEB","OBJECT_ID":"1999-025EWJ","EPOCH":"2026-03-19T08:15:31.888512","MEAN_MOTION":14.20671366,"ECCENTRICITY":0.00723762,"INCLINATION":98.6655,"RA_OF_ASC_NODE":123.6305,"ARG_OF_PERICENTER":153.0465,"MEAN_ANOMALY":207.4501,"EPHEMERIS_TYPE":0,"CLASSIFICATION_TYPE":"U","NORAD_CAT_ID":39541,"ELEMENT_SET_NO":999,"REV_AT_EPOCH":60374,"BSTAR":0.00048343479,"MEAN_MOTION_DOT":1.026e-5,"MEAN_MOTION_DDOT":0},{"OBJECT_NAME":"FENGYUN 1C DEB","OBJECT_ID":"1999-025EWL","EPOCH":"2026-03-27T19:26:38.174784","MEAN_MOTION":13.70451303,"ECCENTRICITY":0.03374068,"INCLINATION":99.0299,"RA_OF_ASC_NODE":115.5329,"ARG_OF_PERICENTER":225.4271,"MEAN_ANOMALY":131.888,"EPHEMERIS_TYPE":0,"CLASSIFICATION_TYPE":"U","NORAD_CAT_ID":39543,"ELEMENT_SET_NO":999,"REV_AT_EPOCH":50624,"BSTAR":0.0006610585,"MEAN_MOTION_DOT":8.32e-6,"MEAN_MOTION_DDOT":0},{"OBJECT_NAME":"FENGYUN 1C DEB","OBJECT_ID":"1999-025EWM","EPOCH":"2026-03-24T22:50:21.662304","MEAN_MOTION":14.05695447,"ECCENTRICITY":0.00551376,"INCLINATION":98.7308,"RA_OF_ASC_NODE":324.4474,"ARG_OF_PERICENTER":81.0466,"MEAN_ANOMALY":279.6938,"EPHEMERIS_TYPE":0,"CLASSIFICATION_TYPE":"U","NORAD_CAT_ID":39544,"ELEMENT_SET_NO":999,"REV_AT_EPOCH":58291,"BSTAR":0.00056725792,"MEAN_MOTION_DOT":8.96e-6,"MEAN_MOTION_DDOT":0}]
